{
  "type": "FeatureCollection",
  "features": [
    {
      "type": "Feature",
      "properties": {
        "norad_id": 25590,
        "name": "COSMOS 2361",
        "group": "musson",
        "lat": -14.214319417369127,
        "lon": -21.59346104005036,
        "alt_km": 994.5877197325935,
        "timestamp": "2025-12-17T23:38:07.123699+00:00",
        "meta_object_name": "COSMOS 2361",
        "meta_object_id": "1998-076A",
        "meta_epoch": "2025-12-17T12:01:13.966176",
        "meta_mean_motion": 13.73218118,
        "meta_eccentricity": 0.00301022,
        "meta_inclination": 82.934,
        "meta_ra_of_asc_node": 340.5647,
        "meta_arg_of_pericenter": 251.8047,
        "meta_mean_anomaly": 222.5456,
        "meta_ephemeris_type": 0,
        "meta_classification_type": "U",
        "meta_norad_cat_id": 25590,
        "meta_element_set_no": 999,
        "meta_rev_at_epoch": 35176,
        "meta_bstar": 6.5487366e-05,
        "meta_mean_motion_dot": 7.6e-07,
        "meta_mean_motion_ddot": 0,
        "tle_line1": "1 25590U 98076A   25351.50085609  .00000076  00000+0  65487-4 0  9996",
        "tle_line2": "2 25590  82.9340 340.5647 0030102 251.8047 222.5456 13.73218118351764"
      },
      "geometry": {
        "type": "Point",
        "coordinates": [
          -21.59346104005036,
          -14.214319417369127
        ]
      }
    },
    {
      "type": "Feature",
      "properties": {
        "norad_id": 26818,
        "name": "COSMOS 2378",
        "group": "musson",
        "lat": 73.57700962929678,
        "lon": 20.74648836960389,
        "alt_km": 987.806833612698,
        "timestamp": "2025-12-17T23:38:07.123720+00:00",
        "meta_object_name": "COSMOS 2378",
        "meta_object_id": "2001-023A",
        "meta_epoch": "2025-12-17T13:22:03.961056",
        "meta_mean_motion": 13.74142424,
        "meta_eccentricity": 0.00327007,
        "meta_inclination": 82.9271,
        "meta_ra_of_asc_node": 356.1527,
        "meta_arg_of_pericenter": 191.3164,
        "meta_mean_anomaly": 289.0235,
        "meta_ephemeris_type": 0,
        "meta_classification_type": "U",
        "meta_norad_cat_id": 26818,
        "meta_element_set_no": 999,
        "meta_rev_at_epoch": 22989,
        "meta_bstar": 4.9368059e-05,
        "meta_mean_motion_dot": 6.2e-07,
        "meta_mean_motion_ddot": 0,
        "tle_line1": "1 26818U 01023A   25351.55699029  .00000062  00000+0  49368-4 0  9993",
        "tle_line2": "2 26818  82.9271 356.1527 0032700 191.3164 289.0235 13.74142424229893"
      },
      "geometry": {
        "type": "Point",
        "coordinates": [
          20.74648836960389,
          73.57700962929678
        ]
      }
    },
    {
      "type": "Feature",
      "properties": {
        "norad_id": 27436,
        "name": "COSMOS 2389",
        "group": "musson",
        "lat": -58.35492521924393,
        "lon": -68.48041219232087,
        "alt_km": 997.3965949591211,
        "timestamp": "2025-12-17T23:38:07.123734+00:00",
        "meta_object_name": "COSMOS 2389",
        "meta_object_id": "2002-026A",
        "meta_epoch": "2025-12-17T16:01:43.938624",
        "meta_mean_motion": 13.75155201,
        "meta_eccentricity": 0.00474751,
        "meta_inclination": 82.9506,
        "meta_ra_of_asc_node": 303.3364,
        "meta_arg_of_pericenter": 47.3519,
        "meta_mean_anomaly": 126.0454,
        "meta_ephemeris_type": 0,
        "meta_classification_type": "U",
        "meta_norad_cat_id": 27436,
        "meta_element_set_no": 999,
        "meta_rev_at_epoch": 18216,
        "meta_bstar": 3.7759431e-05,
        "meta_mean_motion_dot": 5.2e-07,
        "meta_mean_motion_ddot": 0,
        "tle_line1": "1 27436U 02026A   25351.66786966  .00000052  00000+0  37759-4 0  9993",
        "tle_line2": "2 27436  82.9506 303.3364 0047475  47.3519 126.0454 13.75155201182162"
      },
      "geometry": {
        "type": "Point",
        "coordinates": [
          -68.48041219232087,
          -58.35492521924393
        ]
      }
    },
    {
      "type": "Feature",
      "properties": {
        "norad_id": 27818,
        "name": "COSMOS 2398",
        "group": "musson",
        "lat": -22.26813629138203,
        "lon": 91.73847901114829,
        "alt_km": 1002.3395268465747,
        "timestamp": "2025-12-17T23:38:07.123746+00:00",
        "meta_object_name": "COSMOS 2398",
        "meta_object_id": "2003-023A",
        "meta_epoch": "2025-12-17T07:28:07.757760",
        "meta_mean_motion": 13.72386161,
        "meta_eccentricity": 0.00327048,
        "meta_inclination": 82.9484,
        "meta_ra_of_asc_node": 269.3296,
        "meta_arg_of_pericenter": 99.5637,
        "meta_mean_anomaly": 16.281,
        "meta_ephemeris_type": 0,
        "meta_classification_type": "U",
        "meta_norad_cat_id": 27818,
        "meta_element_set_no": 999,
        "meta_rev_at_epoch": 12879,
        "meta_bstar": 3.662827e-05,
        "meta_mean_motion_dot": 4.9e-07,
        "meta_mean_motion_ddot": 0,
        "tle_line1": "1 27818U 03023A   25351.31120090  .00000049  00000+0  36628-4 0  9997",
        "tle_line2": "2 27818  82.9484 269.3296 0032704  99.5637  16.2810 13.72386161128798"
      },
      "geometry": {
        "type": "Point",
        "coordinates": [
          91.73847901114829,
          -22.26813629138203
        ]
      }
    },
    {
      "type": "Feature",
      "properties": {
        "norad_id": 28380,
        "name": "COSMOS 2407",
        "group": "musson",
        "lat": 66.7200308071795,
        "lon": 12.318958106256863,
        "alt_km": 961.0963158261338,
        "timestamp": "2025-12-17T23:38:07.123757+00:00",
        "meta_object_name": "COSMOS 2407",
        "meta_object_id": "2004-028A",
        "meta_epoch": "2025-12-17T14:39:08.351712",
        "meta_mean_motion": 13.76314255,
        "meta_eccentricity": 0.00401334,
        "meta_inclination": 82.96,
        "meta_ra_of_asc_node": 209.2865,
        "meta_arg_of_pericenter": 41.5986,
        "meta_mean_anomaly": 16.7048,
        "meta_ephemeris_type": 0,
        "meta_classification_type": "U",
        "meta_norad_cat_id": 28380,
        "meta_element_set_no": 999,
        "meta_rev_at_epoch": 7490,
        "meta_bstar": 6.9818091e-05,
        "meta_mean_motion_dot": 8.4e-07,
        "meta_mean_motion_ddot": 0,
        "tle_line1": "1 28380U 04028A   25351.61051333  .00000084  00000+0  69818-4 0  9990",
        "tle_line2": "2 28380  82.9600 209.2865 0040133  41.5986  16.7048 13.76314255 74907"
      },
      "geometry": {
        "type": "Point",
        "coordinates": [
          12.318958106256863,
          66.7200308071795
        ]
      }
    },
    {
      "type": "Feature",
      "properties": {
        "norad_id": 28521,
        "name": "COSMOS 2414",
        "group": "musson",
        "lat": -53.68560205703741,
        "lon": 10.388392227474517,
        "alt_km": 952.763342828739,
        "timestamp": "2025-12-17T23:38:07.123768+00:00",
        "meta_object_name": "COSMOS 2414",
        "meta_object_id": "2005-002A",
        "meta_epoch": "2025-12-17T13:51:47.241504",
        "meta_mean_motion": 13.87903641,
        "meta_eccentricity": 0.00411496,
        "meta_inclination": 82.9489,
        "meta_ra_of_asc_node": 181.0016,
        "meta_arg_of_pericenter": 126.19,
        "meta_mean_anomaly": 234.308,
        "meta_ephemeris_type": 0,
        "meta_classification_type": "U",
        "meta_norad_cat_id": 28521,
        "meta_element_set_no": 999,
        "meta_rev_at_epoch": 5862,
        "meta_bstar": 6.1318131e-05,
        "meta_mean_motion_dot": 9e-07,
        "meta_mean_motion_ddot": 0,
        "tle_line1": "1 28521U 05002A   25351.57763011  .00000090  00000+0  61318-4 0  9992",
        "tle_line2": "2 28521  82.9489 181.0016 0041149 126.1900 234.3080 13.87903641 58628"
      },
      "geometry": {
        "type": "Point",
        "coordinates": [
          10.388392227474517,
          -53.68560205703741
        ]
      }
    },
    {
      "type": "Feature",
      "properties": {
        "norad_id": 32052,
        "name": "COSMOS 2429",
        "group": "musson",
        "lat": 51.687238288257575,
        "lon": 150.4709068663974,
        "alt_km": 983.274726408793,
        "timestamp": "2025-12-17T23:38:07.123778+00:00",
        "meta_object_name": "COSMOS 2429",
        "meta_object_id": "2007-038A",
        "meta_epoch": "2025-12-17T10:47:44.609568",
        "meta_mean_motion": 13.75149888,
        "meta_eccentricity": 0.00389885,
        "meta_inclination": 82.9804,
        "meta_ra_of_asc_node": 339.8362,
        "meta_arg_of_pericenter": 24.9715,
        "meta_mean_anomaly": 335.3316,
        "meta_ephemeris_type": 0,
        "meta_classification_type": "U",
        "meta_norad_cat_id": 32052,
        "meta_element_set_no": 999,
        "meta_rev_at_epoch": 91667,
        "meta_bstar": 5.6060819e-05,
        "meta_mean_motion_dot": 6.9e-07,
        "meta_mean_motion_ddot": 0,
        "tle_line1": "1 32052U 07038A   25351.44982187  .00000069  00000+0  56061-4 0  9995",
        "tle_line2": "2 32052  82.9804 339.8362 0038988  24.9715 335.3316 13.75149888916670"
      },
      "geometry": {
        "type": "Point",
        "coordinates": [
          150.4709068663974,
          51.687238288257575
        ]
      }
    },
    {
      "type": "Feature",
      "properties": {
        "norad_id": 35635,
        "name": "COSMOS 2454",
        "group": "musson",
        "lat": -37.82451386800673,
        "lon": 159.1598534551337,
        "alt_km": 937.2143875988004,
        "timestamp": "2025-12-17T23:38:07.123789+00:00",
        "meta_object_name": "COSMOS 2454",
        "meta_object_id": "2009-039A",
        "meta_epoch": "2025-12-17T13:45:12.079008",
        "meta_mean_motion": 13.89929231,
        "meta_eccentricity": 0.00203389,
        "meta_inclination": 82.9553,
        "meta_ra_of_asc_node": 164.9809,
        "meta_arg_of_pericenter": 60.7927,
        "meta_mean_anomaly": 2.2667,
        "meta_ephemeris_type": 0,
        "meta_classification_type": "U",
        "meta_norad_cat_id": 35635,
        "meta_element_set_no": 999,
        "meta_rev_at_epoch": 83217,
        "meta_bstar": 5.0529538e-05,
        "meta_mean_motion_dot": 7.8e-07,
        "meta_mean_motion_ddot": 0,
        "tle_line1": "1 35635U 09039A   25351.57305647  .00000078  00000+0  50530-4 0  9997",
        "tle_line2": "2 35635  82.9553 164.9809 0020338  60.7927   2.2667 13.89929231832171"
      },
      "geometry": {
        "type": "Point",
        "coordinates": [
          159.1598534551337,
          -37.82451386800673
        ]
      }
    },
    {
      "type": "Feature",
      "properties": {
        "norad_id": 36519,
        "name": "COSMOS 2463",
        "group": "musson",
        "lat": 17.835413752945737,
        "lon": 25.136586648791898,
        "alt_km": 1000.5703504841686,
        "timestamp": "2025-12-17T23:38:07.123800+00:00",
        "meta_object_name": "COSMOS 2463",
        "meta_object_id": "2010-017A",
        "meta_epoch": "2025-12-17T15:21:21.716352",
        "meta_mean_motion": 13.71649589,
        "meta_eccentricity": 0.00347342,
        "meta_inclination": 82.9608,
        "meta_ra_of_asc_node": 23.1117,
        "meta_arg_of_pericenter": 273.9318,
        "meta_mean_anomaly": 201.2824,
        "meta_ephemeris_type": 0,
        "meta_classification_type": "U",
        "meta_norad_cat_id": 36519,
        "meta_element_set_no": 999,
        "meta_rev_at_epoch": 78304,
        "meta_bstar": 6.1469663e-05,
        "meta_mean_motion_dot": 7e-07,
        "meta_mean_motion_ddot": 0,
        "tle_line1": "1 36519U 10017A   25351.63983468  .00000070  00000+0  61470-4 0  9994",
        "tle_line2": "2 36519  82.9608  23.1117 0034734 273.9318 201.2824 13.71649589783042"
      },
      "geometry": {
        "type": "Point",
        "coordinates": [
          25.136586648791898,
          17.835413752945737
        ]
      }
    }
  ]
}